{
"type": "FeatureCollection",
"name": "posto_medico",
"crs": { "type": "name", "properties": { "name": "urn:ogc:def:crs:OGC:1.3:CRS84" } },
"features": [
{ "type": "Feature", "properties": { "name": "Unidade sanitária", "uso": "Primeiros Socorros" }, "geometry": { "type": "Polygon", "coordinates": [ [ [ 32.637644934167845, -25.774489072817715 ], [ 32.637649049923077, -25.774742041331461 ], [ 32.637649049919482, -25.774742041345618 ], [ 32.637474755410665, -25.774739686000206 ], [ 32.637461376288854, -25.774477455212732 ], [ 32.637644934167845, -25.774489072817715 ] ] ] } }
]
}
