{
"type": "FeatureCollection",
"name": "bilheteiras",
"crs": { "type": "name", "properties": { "name": "urn:ogc:def:crs:OGC:1.3:CRS84" } },
"features": [
{ "type": "Feature", "properties": { "code": "B", "description": "Bilheteira B" }, "geometry": { "type": "Polygon", "coordinates": [ [ [ 32.636592934821188, -25.773459721928042 ], [ 32.636526182230334, -25.773460981410889 ], [ 32.63652366326464, -25.773399266751419 ], [ 32.636594194304031, -25.773398007268572 ], [ 32.636592934821188, -25.773459721928042 ] ] ] } },
{ "type": "Feature", "properties": { "code": null, "description": "Bilheteira Principal" }, "geometry": { "type": "Polygon", "coordinates": [ [ [ 32.637460718502282, -25.771822394227861 ], [ 32.637269277109645, -25.771824913193555 ], [ 32.637269277109645, -25.771716597668771 ], [ 32.637460718502282, -25.771724154565849 ], [ 32.637460718502282, -25.771822394227861 ] ] ] } },
{ "type": "Feature", "properties": { "code": "A", "description": "Bilheteira A" }, "geometry": { "type": "Polygon", "coordinates": [ [ [ 32.63641408825702, -25.77138598342162 ], [ 32.636306717344375, -25.771386928033749 ], [ 32.636307032215086, -25.771202728667479 ], [ 32.63641534773987, -25.771203358408904 ], [ 32.63641408825702, -25.77138598342162 ] ] ] } }
]
}
