{
"type": "FeatureCollection",
"name": "edificios",
"crs": { "type": "name", "properties": { "name": "urn:ogc:def:crs:OGC:1.3:CRS84" } },
"features": [
{ "type": "Feature", "properties": { "name": "L", "uso": "Tenda de conferências" }, "geometry": { "type": "Polygon", "coordinates": [ [ [ 32.637416329416581, -25.773329137812738 ], [ 32.636887346621343, -25.773368811522378 ], [ 32.636865305671542, -25.773188075734005 ], [ 32.637398696656739, -25.773132973359502 ], [ 32.637416329416581, -25.773329137812738 ] ] ] } },
{ "type": "Feature", "properties": { "name": "M", "uso": "Business lounge" }, "geometry": { "type": "Polygon", "coordinates": [ [ [ 32.637592657014999, -25.772696562553424 ], [ 32.637599269299933, -25.772941217096221 ], [ 32.637427349891482, -25.772943421191201 ], [ 32.637422941701523, -25.772703174838366 ], [ 32.637592657014999, -25.772696562553424 ] ] ] } },
{ "type": "Feature", "properties": { "name": "Y", "uso": "Txilar" }, "geometry": { "type": "Polygon", "coordinates": [ [ [ 32.635668482097323, -25.773366607427395 ], [ 32.635672890287282, -25.773267423153285 ], [ 32.635551665063375, -25.773254198583405 ], [ 32.635547256873416, -25.773355586952494 ], [ 32.635668482097323, -25.773366607427395 ] ] ] } },
{ "type": "Feature", "properties": { "name": "F", "uso": "Caravanas " }, "geometry": { "type": "Polygon", "coordinates": [ [ [ 32.635118585340116, -25.772901364518042 ], [ 32.634883824284387, -25.77287950243678 ], [ 32.634875007904462, -25.773005135850649 ], [ 32.6351042337824, -25.773022768610492 ], [ 32.635118585340116, -25.772901364518042 ] ] ] } },
{ "type": "Feature", "properties": { "name": "G", "uso": "Parque infantil" }, "geometry": { "type": "Polygon", "coordinates": [ [ [ 32.634769211345414, -25.773062442320136 ], [ 32.634767007250439, -25.773157218404283 ], [ 32.63465019021649, -25.773146197929382 ], [ 32.634656802501425, -25.773060238225153 ], [ 32.634769211345414, -25.773062442320136 ] ] ] } },
{ "type": "Feature", "properties": { "name": "D1.2", "uso": "Agricultura - Bancas" }, "geometry": { "type": "Polygon", "coordinates": [ [ [ 32.634753231656788, -25.772673970579895 ], [ 32.634699231329776, -25.772753317999179 ], [ 32.634654047382682, -25.772761032331612 ], [ 32.634593434770728, -25.772759930284121 ], [ 32.634566985630968, -25.77274890980922 ], [ 32.634541638538693, -25.772702623814638 ], [ 32.634532822158775, -25.772660746010015 ], [ 32.634592332723237, -25.772572582210806 ], [ 32.634671680142525, -25.772564867878376 ], [ 32.634732292754478, -25.772603439540529 ], [ 32.634753231656788, -25.772673970579895 ] ] ] } },
{ "type": "Feature", "properties": { "name": "D1.1", "uso": "Agricultura - Máquina" }, "geometry": { "type": "Polygon", "coordinates": [ [ [ 32.635328500446619, -25.772506459361406 ], [ 32.635328500446619, -25.772308090813191 ], [ 32.635004498484541, -25.772308090813191 ], [ 32.6350089066745, -25.772497642981484 ], [ 32.635328500446619, -25.772506459361406 ] ] ] } },
{ "type": "Feature", "properties": { "name": "I", "uso": "Restaurante explanada" }, "geometry": { "type": "Polygon", "coordinates": [ [ [ 32.6350089066745, -25.772497642981484 ], [ 32.634607761388111, -25.772493234791522 ], [ 32.634614373673053, -25.772378621852557 ], [ 32.634724578422059, -25.772376417757574 ], [ 32.634728986612018, -25.772303682623232 ], [ 32.635004498484541, -25.772308090813191 ], [ 32.6350089066745, -25.772497642981484 ] ] ] } },
{ "type": "Feature", "properties": { "name": "E", "uso": "Expomaningue" }, "geometry": { "type": "Polygon", "coordinates": [ [ [ 32.635388906522202, -25.772520443699623 ], [ 32.634922946970271, -25.772510867551365 ], [ 32.634878865070668, -25.772510867551365 ], [ 32.63488547735561, -25.772863522748189 ], [ 32.635385806916105, -25.772912012837754 ], [ 32.635388906522202, -25.772520443699623 ] ] ] } },
{ "type": "Feature", "properties": { "name": "D3", "uso": "Pescas" }, "geometry": { "type": "Polygon", "coordinates": [ [ [ 32.635315275876742, -25.772233151583858 ], [ 32.634909722400394, -25.7722397638688 ], [ 32.634905314210435, -25.771701964693641 ], [ 32.63532409225666, -25.771721801548463 ], [ 32.635315275876742, -25.772233151583858 ] ] ] } },
{ "type": "Feature", "properties": { "name": "D4", "uso": "Pecuária" }, "geometry": { "type": "Polygon", "coordinates": [ [ [ 32.63487004869075, -25.771501392050446 ], [ 32.634629802337912, -25.771492575670525 ], [ 32.634625394147953, -25.77155429032997 ], [ 32.634546046728666, -25.771547678045028 ], [ 32.634539434443724, -25.771743842498264 ], [ 32.634488740259179, -25.771739434308305 ], [ 32.634468903404361, -25.77197747656616 ], [ 32.634559271298549, -25.771986292946082 ], [ 32.634559271298549, -25.771986292946082 ], [ 32.63459674091321, -25.771988497041061 ], [ 32.634579108153368, -25.772224335203937 ], [ 32.634647435097754, -25.772228743393899 ], [ 32.634647435097754, -25.772308090813183 ], [ 32.634711353852175, -25.772305886718204 ], [ 32.634709149757199, -25.772228743393899 ], [ 32.634839191361024, -25.772233151583858 ], [ 32.63487004869075, -25.771501392050446 ] ] ] } },
{ "type": "Feature", "properties": { "name": "B", "uso": "Espaços 5x5 para venda" }, "geometry": { "type": "Polygon", "coordinates": [ [ [ 32.637038153376807, -25.771709271869994 ], [ 32.637038153376807, -25.771943842678258 ], [ 32.637021381263772, -25.771971664577528 ], [ 32.637009326807487, -25.771987335370689 ], [ 32.636990039677443, -25.772003006163853 ], [ 32.636971957993026, -25.772015060620131 ], [ 32.63692856195042, -25.772029525967667 ], [ 32.636891193135952, -25.772042785869573 ], [ 32.636856235212747, -25.772053634880226 ], [ 32.636801990159491, -25.772075332901526 ], [ 32.636740512432468, -25.772097030922829 ], [ 32.636699527281117, -25.772112701715994 ], [ 32.63661996786967, -25.772135605182921 ], [ 32.636562106479538, -25.772147659639202 ], [ 32.636495806969997, -25.772154892312969 ], [ 32.636339099038373, -25.772154892312969 ], [ 32.636233019823116, -25.772158508649852 ], [ 32.635999163371302, -25.772147659639202 ], [ 32.635796648505817, -25.77210908537911 ], [ 32.635640844658418, -25.772056949855703 ], [ 32.635620352082739, -25.772032840943144 ], [ 32.635612544743637, -25.772000212407374 ], [ 32.635617999878711, -25.77170381673492 ], [ 32.637038153376807, -25.771709271869994 ] ] ] } },
{ "type": "Feature", "properties": { "name": "A", "uso": "Pavilhões" }, "geometry": { "type": "Polygon", "coordinates": [ [ [ 32.637323206403671, -25.771602780419528 ], [ 32.637320451284943, -25.771046521948939 ], [ 32.636423935651763, -25.771056164864451 ], [ 32.636308548525605, -25.771053698897127 ], [ 32.636307945802791, -25.770952441464463 ], [ 32.635943442946093, -25.770950368305403 ], [ 32.635875984779581, -25.770951297393083 ], [ 32.635876603454008, -25.771040453120939 ], [ 32.635238319993739, -25.771043768096423 ], [ 32.635241936330615, -25.771606711204917 ], [ 32.637323206403671, -25.771602780419528 ] ] ] } },
{ "type": "Feature", "properties": { "name": null }, "geometry": { "type": "Polygon", "coordinates": [ [ [ 32.637037052056932, -25.772070511119015 ], [ 32.637328468537476, -25.77291703531121 ], [ 32.637244087343525, -25.772955609571305 ], [ 32.637116310106961, -25.773003827396419 ], [ 32.636923438806498, -25.773054456112792 ], [ 32.636737800179802, -25.773093030372884 ], [ 32.63643402788157, -25.773131604632976 ], [ 32.636164309422327, -25.773137330499711 ], [ 32.635963904086687, -25.773124371959209 ], [ 32.635681829809762, -25.773078565025351 ], [ 32.635460027814226, -25.773039990765255 ], [ 32.635694185627443, -25.772116318052877 ], [ 32.635749636126334, -25.772127468424937 ], [ 32.635777662737183, -25.772132591568859 ], [ 32.635878618808519, -25.772153988228752 ], [ 32.636006396045076, -25.772172973997389 ], [ 32.636195651008656, -25.772183823008039 ], [ 32.636355975277169, -25.772182617562411 ], [ 32.636481341622471, -25.772183823008039 ], [ 32.636695910944233, -25.772157303204224 ], [ 32.636871906005908, -25.77211993438976 ], [ 32.637037052056932, -25.772070511119015 ] ] ] } },
{ "type": "Feature", "properties": { "name": "J", "uso": "Restaurante pequeno" }, "geometry": { "type": "Polygon", "coordinates": [ [ [ 32.6372903, -25.7720627 ], [ 32.6372276, -25.772064 ], [ 32.6372063, -25.7720639 ], [ 32.6372071, -25.7718821 ], [ 32.6373205, -25.7718825 ], [ 32.6373197, -25.7720628 ], [ 32.6372903, -25.7720627 ] ] ] } },
{ "type": "Feature", "properties": { "name": "H", "uso": "Restaurante quiosque" }, "geometry": { "type": "Polygon", "coordinates": [ [ [ 32.6350522, -25.773216 ], [ 32.63507, -25.7734801 ], [ 32.6349449, -25.7734898 ], [ 32.6349341, -25.7732064 ], [ 32.6350522, -25.773216 ] ] ] } },
{ "type": "Feature", "properties": { "name": "H", "uso": "Restaurante quiosque" }, "geometry": { "type": "Polygon", "coordinates": [ [ [ 32.6350665, -25.7735381 ], [ 32.6350558, -25.773799 ], [ 32.6349771, -25.7738022 ], [ 32.6349663, -25.7735349 ], [ 32.6350665, -25.7735381 ] ] ] } },
{ "type": "Feature", "properties": { "name": "C1 - Pavilhão Kongwa", "uso": "Ipeme" }, "geometry": { "type": "Polygon", "coordinates": [ [ [ 32.637028, -25.7720939 ], [ 32.6372879, -25.7728701 ], [ 32.6370879, -25.7729244 ], [ 32.6368282, -25.7721481 ], [ 32.637028, -25.7720939 ] ] ] } },
{ "type": "Feature", "properties": { "name": "C2 - Pavilhão Nachingueia", "uso": "Províncias" }, "geometry": { "type": "Polygon", "coordinates": [ [ [ 32.636759, -25.7721638 ], [ 32.6368962, -25.7729729 ], [ 32.6366888, -25.7730015 ], [ 32.6365515, -25.7721923 ], [ 32.636759, -25.7721638 ] ] ] } },
{ "type": "Feature", "properties": { "name": "C3 - Pavilhão Guazamutine", "uso": "Mireme" }, "geometry": { "type": "Polygon", "coordinates": [ [ [ 32.6364837, -25.772194061424702 ], [ 32.6365084, -25.773057761424703 ], [ 32.6362956, -25.773062761424701 ], [ 32.6362708, -25.772198961424703 ], [ 32.6364837, -25.772194061424702 ] ] ] } },
{ "type": "Feature", "properties": { "name": "C4 - Pavilhão Madjedje", "uso": "Instituições públicas/empresas privadas" }, "geometry": { "type": "Polygon", "coordinates": [ [ [ 32.635995208189961, -25.77217937543012 ], [ 32.636197108189961, -25.772195675430119 ], [ 32.636119608189958, -25.772971075430121 ], [ 32.63591790818996, -25.772954775430119 ], [ 32.635995208189961, -25.77217937543012 ] ] ] } },
{ "type": "Feature", "properties": { "name": "C5 - Pavilhão Chai", "uso": "Instituições públicas" }, "geometry": { "type": "Polygon", "coordinates": [ [ [ 32.6355329, -25.7728966 ], [ 32.6357163, -25.7721371 ], [ 32.6359134, -25.7721756 ], [ 32.6358726, -25.7723297 ], [ 32.6357302, -25.7729352 ], [ 32.6355329, -25.7728966 ] ] ] } },
{ "type": "Feature", "properties": { "name": "D2", "uso": "Floresta e Fauna Bravia" }, "geometry": { "type": "Polygon", "coordinates": [ [ [ 32.6342518, -25.7719773 ], [ 32.6345461, -25.7719975 ], [ 32.6345307, -25.7721798 ], [ 32.6342364, -25.7721596 ], [ 32.6342518, -25.7719773 ] ] ] } },
{ "type": "Feature", "properties": { "name": "N", "uso": "Sala de reunião" }, "geometry": { "type": "Polygon", "coordinates": [ [ [ 32.6344452, -25.7723808 ], [ 32.6345244, -25.772385 ], [ 32.6345177, -25.7724872 ], [ 32.6344385, -25.772483 ], [ 32.6344452, -25.7723808 ] ] ] } },
{ "type": "Feature", "properties": { "name": "K", "uso": "Restaurante grande" }, "geometry": { "type": "Polygon", "coordinates": [ [ [ 32.6372273, -25.7721367 ], [ 32.6372899, -25.7721376 ], [ 32.6373417, -25.7721378 ], [ 32.6373401, -25.7724607 ], [ 32.637328, -25.7724606 ], [ 32.6373278, -25.7724979 ], [ 32.6372171, -25.7724974 ], [ 32.6372173, -25.7724683 ], [ 32.6372065, -25.7724682 ], [ 32.6372081, -25.7721366 ], [ 32.6372273, -25.7721367 ] ] ] } },
{ "type": "Feature", "properties": { "name": null }, "geometry": { "type": "Polygon", "coordinates": [ [ [ 32.6354281, -25.7724619 ], [ 32.6353665, -25.772462 ], [ 32.6353662, -25.7723194 ], [ 32.6354278, -25.7723193 ], [ 32.6354281, -25.7724619 ] ] ] } }
]
}
