{
"type": "FeatureCollection",
"name": "limite",
"crs": { "type": "name", "properties": { "name": "urn:ogc:def:crs:OGC:1.3:CRS84" } },
"features": [
{ "type": "Feature", "properties": { "element": null, "id": null, "building": null, "name": null }, "geometry": { "type": "Polygon", "coordinates": [ [ [ 32.637576436736424, -25.769778707632906 ], [ 32.637595167506959, -25.770407526357996 ], [ 32.637603194980045, -25.770712570335274 ], [ 32.637627277399304, -25.771724031944142 ], [ 32.637640656521114, -25.771994290204713 ], [ 32.637659387291649, -25.772473262765526 ], [ 32.637672766413459, -25.772909422136546 ], [ 32.637675442237821, -25.773112784788065 ], [ 32.637680793886545, -25.77325995512798 ], [ 32.637683469710908, -25.773514158442378 ], [ 32.637715579603253, -25.774148328816192 ], [ 32.637720931251977, -25.774391828833142 ], [ 32.637739662022511, -25.77487615304268 ], [ 32.63763530487239, -25.774967131070991 ], [ 32.63650610699159, -25.774763768419472 ], [ 32.635540134396877, -25.77463265302573 ], [ 32.634766821156234, -25.774445345320384 ], [ 32.633629595802347, -25.774180438708537 ], [ 32.633974777145056, -25.773008427637944 ], [ 32.633996183739953, -25.772526779252768 ], [ 32.634285172771058, -25.771445746210485 ], [ 32.634550079382905, -25.770859740675188 ], [ 32.634662464006112, -25.770410202182358 ], [ 32.634742738736975, -25.770161350516684 ], [ 32.634772172804958, -25.770062345015287 ], [ 32.634780200278044, -25.769939257094631 ], [ 32.63495412886158, -25.769936581270269 ], [ 32.635039755241166, -25.769949960392079 ], [ 32.635194953054167, -25.769968691162614 ], [ 32.635548161869963, -25.769974042811338 ], [ 32.635708711331688, -25.769984746108786 ], [ 32.635976293767897, -25.769979394460062 ], [ 32.636123464107811, -25.769966015338252 ], [ 32.636345557529864, -25.769952636216441 ], [ 32.636623843263521, -25.769949960392079 ], [ 32.636910156470265, -25.76992587797282 ], [ 32.637110843297421, -25.769920526324096 ], [ 32.637260689461698, -25.76992587797282 ], [ 32.637576436736424, -25.769778707632906 ] ] ] } }
]
}
