{
"type": "FeatureCollection",
"name": "parques",
"crs": { "type": "name", "properties": { "name": "urn:ogc:def:crs:OGC:1.3:CRS84" } },
"features": [
{ "type": "Feature", "properties": { "name": "Parque" }, "geometry": { "type": "Polygon", "coordinates": [ [ [ 32.637320451284943, -25.771046521948922 ], [ 32.637320665850964, -25.771089842827987 ], [ 32.637565733438976, -25.77107915827288 ], [ 32.63752024442482, -25.76985363071503 ], [ 32.637252661988612, -25.769955312040796 ], [ 32.63694226636261, -25.769944608743359 ], [ 32.636688063048211, -25.769966015338245 ], [ 32.636436535558175, -25.76996869116261 ], [ 32.636251903677191, -25.769974042811338 ], [ 32.636179656419415, -25.76996869116261 ], [ 32.636128815756535, -25.769990097757521 ], [ 32.635788986062551, -25.769995449406228 ], [ 32.635644491546998, -25.770003476879321 ], [ 32.635601678357204, -25.769990097757503 ], [ 32.635310013501737, -25.769987421933138 ], [ 32.635355502515893, -25.770099806556345 ], [ 32.635355502515893, -25.770161350516673 ], [ 32.635368881637703, -25.770260356018081 ], [ 32.6353902882326, -25.770354009870758 ], [ 32.635398315705686, -25.770447663723424 ], [ 32.635406343178772, -25.770576103292814 ], [ 32.635417046476221, -25.770723273632719 ], [ 32.635425073949307, -25.77081960330975 ], [ 32.635435777246755, -25.770875795621361 ], [ 32.635441128895479, -25.770969449474045 ], [ 32.6354514756406, -25.771049816724855 ], [ 32.635876694636742, -25.771048611263094 ], [ 32.635887596503849, -25.770962137371271 ], [ 32.636307945802791, -25.770952441464466 ], [ 32.636300991497045, -25.771047014453767 ], [ 32.637320451284943, -25.771046521948922 ] ] ] } },
{ "type": "Feature", "properties": { "name": "Parque" }, "geometry": { "type": "Polygon", "coordinates": [ [ [ 32.635770255292016, -25.773551619983454 ], [ 32.635631112425187, -25.773465993603846 ], [ 32.635144112391288, -25.773476696901309 ], [ 32.635149464040012, -25.774391828833139 ], [ 32.635834475076706, -25.774359718940794 ], [ 32.635770255292016, -25.773551619983454 ] ] ] } },
{ "type": "Feature", "properties": { "name": "Parque" }, "geometry": { "type": "Polygon", "coordinates": [ [ [ 32.635834475076706, -25.774359718940794 ], [ 32.636551596005745, -25.774343663994618 ], [ 32.637193793852646, -25.774407883779322 ], [ 32.637158239095704, -25.774027238734405 ], [ 32.637111022443833, -25.773521742814388 ], [ 32.637102815824335, -25.773433883711515 ], [ 32.635770255292016, -25.773551619983454 ], [ 32.635834475076706, -25.774359718940794 ] ] ] } },
{ "type": "Feature", "properties": { "name": "Parque Yango" }, "geometry": { "type": "Polygon", "coordinates": [ [ [ 32.637111022443833, -25.773521742814388 ], [ 32.637158239095704, -25.774027238734405 ], [ 32.637625220819324, -25.773976280788602 ], [ 32.637598718789775, -25.773454606730279 ], [ 32.637111022443833, -25.773521742814388 ] ] ] } }
]
}
