{
"type": "FeatureCollection",
"name": "servicos",
"crs": { "type": "name", "properties": { "name": "urn:ogc:def:crs:OGC:1.3:CRS84" } },
"features": [
{ "type": "Feature", "properties": { "name": "PRM", "uso": "Posto Policial" }, "geometry": { "type": "Polygon", "coordinates": [ [ [ 32.637429266396509, -25.774734334351486 ], [ 32.637426590572147, -25.774597867309023 ], [ 32.637204497150094, -25.774584488187202 ], [ 32.637207172974456, -25.774718279405317 ], [ 32.637429266396509, -25.774734334351486 ] ] ] } },
{ "type": "Feature", "properties": { "name": "Unidade sanitária", "uso": "Primeiros Socorros" }, "geometry": { "type": "Polygon", "coordinates": [ [ [ 32.637644934167845, -25.774489072817715 ], [ 32.637649049923077, -25.774742041331461 ], [ 32.637649049919482, -25.774742041345618 ], [ 32.637474755410665, -25.774739686000206 ], [ 32.637461376288854, -25.774477455212732 ], [ 32.637644934167845, -25.774489072817715 ] ] ] } },
{ "type": "Feature", "properties": { "name": "Emissão de Documentos", "uso": "BI, Passaporte, Registo de Nascimento" }, "geometry": { "type": "Polygon", "coordinates": [ [ [ 32.63763530487239, -25.774421262901118 ], [ 32.637472079586303, -25.774431966198577 ], [ 32.637453348815768, -25.774097488153316 ], [ 32.637619249926217, -25.774089460680226 ], [ 32.63763530487239, -25.774421262901118 ] ] ] } },
{ "type": "Feature", "properties": { "name": "Quickbuild", "uso": "Perdidos e achados" }, "geometry": { "type": "Polygon", "coordinates": [ [ [ 32.635435777246755, -25.772055834165041 ], [ 32.635360854164617, -25.772055834165037 ], [ 32.635356840428074, -25.771960842400187 ], [ 32.635434439334574, -25.771955490751459 ], [ 32.635435777246755, -25.772055834165041 ] ] ] } }
]
}
