{
"type": "FeatureCollection",
"name": "wcs",
"crs": { "type": "name", "properties": { "name": "urn:ogc:def:crs:OGC:1.3:CRS84" } },
"features": [
{ "type": "Feature", "properties": { "code": null, "description": "WC" }, "geometry": { "type": "Polygon", "coordinates": [ [ [ 32.637611891409222, -25.773348926288016 ], [ 32.637547671624532, -25.773350264200204 ], [ 32.637549678492803, -25.773270658425428 ], [ 32.637613898277493, -25.773270658425421 ], [ 32.637611891409222, -25.773348926288016 ] ] ] } },
{ "type": "Feature", "properties": { "code": null, "description": "WC" }, "geometry": { "type": "Polygon", "coordinates": [ [ [ 32.636027134430776, -25.773503455144922 ], [ 32.635944183875552, -25.773507468881462 ], [ 32.63594284596337, -25.77341782876535 ], [ 32.636024458606414, -25.773415152940977 ], [ 32.636027134430776, -25.773503455144922 ] ] ] } },
{ "type": "Feature", "properties": { "code": null, "description": "WC" }, "geometry": { "type": "Polygon", "coordinates": [ [ [ 32.635925453105017, -25.773499441408394 ], [ 32.635925453105017, -25.773437897448062 ], [ 32.635842502549792, -25.773441911184602 ], [ 32.635845178374154, -25.773498103496202 ], [ 32.635925453105017, -25.773499441408394 ] ] ] } },
{ "type": "Feature", "properties": { "code": "", "description": "WC" }, "geometry": { "type": "Polygon", "coordinates": [ [ [ 32.635419722300583, -25.77192204294693 ], [ 32.635356840428074, -25.771924718771302 ], [ 32.635355502515893, -25.77172536985632 ], [ 32.63541570856404, -25.77172536985632 ], [ 32.635419722300583, -25.77192204294693 ] ] ] } },
{ "type": "Feature", "properties": { "code": null, "description": "WC" }, "geometry": { "type": "Polygon", "coordinates": [ [ [ 32.6372081, -25.7721366 ], [ 32.6372063, -25.772063899999988 ], [ 32.6372903, -25.7720627 ], [ 32.6372899, -25.772137599999986 ], [ 32.6372081, -25.7721366 ] ] ] } }
]
}
